MEAN_MOTION;ECCENTRICITY;INCLINATION;RA_OF_ASC_NODE;ARG_OF_PERICENTER;MEAN_ANOMALY;BSTAR;MEAN_MOTION_DOT;MEAN_MOTION_DDOT;TYPE
14.34216529;0.0002386;86.3923;84.2945;98.5388;261.6078;9.971E-6;4.8E-7;0;Iridium
14.34216583;0.0002398;86.3924;84.0317;98.4154;261.7314;1.1846E-5;5.3E-7;0;Iridium
14.34216583;0.0002398;86.3924;84.0317;98.4154;261.7314;1.1846E-5;5.3E-7;0;Iridium
14.34216617;0.0002404;86.3924;83.8857;98.2578;261.8891;1.3624E-5;5.8E-7;0;Iridium
14.34216692;0.0002414;86.3924;83.623;98.0889;262.0581;1.5775E-5;6.4E-7;0;Iridium
14.34216771;0.0002423;86.3924;83.4478;97.9426;262.2044;1.9246E-5;7.4E-7;0;Iridium
14.34216836;0.0002431;86.3925;83.2142;97.7616;262.3856;1.9691E-5;7.5E-7;0;Iridium
14.3421685;0.0002433;86.3925;83.185;97.7086;262.4387;2.041E-5;7.7E-7;0;Iridium
14.34216883;0.0002441;86.3925;83.0682;97.5652;262.5821;2.092E-5;7.8E-7;0;Iridium
14.34216963;0.000245;86.3925;82.8054;97.3357;262.8117;2.0031E-5;7.6E-7;0;Iridium
14.34216967;0.0002451;86.3925;82.7763;97.2589;262.8886;1.9658E-5;7.5E-7;0;Iridium
14.3421696;0.0002455;86.3925;82.7178;97.2154;262.9321;1.864E-5;7.2E-7;0;Iridium
14.34217041;0.0002465;86.3926;82.3675;96.8933;263.2544;1.5949E-5;6.4E-7;0;Iridium
14.34217041;0.0002465;86.3926;82.3675;96.8933;263.2544;1.5949E-5;6.4E-7;0;Iridium
14.3421703;0.0002474;86.3926;82.1923;96.7388;263.4089;1.1565E-5;5.2E-7;0;Iridium
14.34217049;0.0002481;86.3927;81.9587;96.5708;263.577;9.1663E-6;4.5E-7;0;Iridium
14.34217058;0.0002491;86.3927;81.7836;96.4015;263.7465;7.5621E-6;4.1E-7;0;Iridium
14.34217049;0.0002497;86.3928;81.55;96.1374;264.0106;4.4003E-6;3.2E-7;0;Iridium
14.34217082;0.0002505;86.3928;81.3748;95.8897;264.2585;5.0733E-6;3.4E-7;0;Iridium
14.34217135;0.0002515;86.3929;80.9369;95.3054;264.8429;4.4102E-6;3.2E-7;0;Iridium
14.34217248;0.0002522;86.393;80.6741;95.0381;265.1103;9.3731E-6;4.6E-7;0;Iridium
14.34217268;0.0002527;86.393;80.5866;94.8501;265.2983;1.0675E-5;5.0E-7;0;Iridium
14.34217379;0.0002534;86.393;80.2946;94.5942;265.5543;1.5562E-5;6.3E-7;0;Iridium
14.34217407;0.000254;86.3931;80.1194;94.3559;265.7927;1.562E-5;6.4E-7;0;Iridium
14.34217393;0.0002545;86.3931;79.8567;94.101;266.0477;1.179E-5;5.3E-7;0;Iridium
14.34217393;0.0002545;86.3931;79.8567;94.101;266.0477;1.179E-5;5.3E-7;0;Iridium
14.3421741;0.000255;86.3932;79.6815;93.9209;266.2278;1.1677E-5;5.2E-7;0;Iridium
14.34217427;0.0002553;86.3932;79.448;93.7002;266.4485;1.1041E-5;5.1E-7;0;Iridium
14.34217451;0.0002557;86.3932;79.2728;93.4551;266.6938;1.1848E-5;5.3E-7;0;Iridium
14.34217512;0.000256;86.3933;79.0393;93.2608;266.888;1.4623E-5;6.1E-7;0;Iridium
14.34217557;0.0002565;86.3933;78.8642;93.0566;267.0923;1.6047E-5;6.5E-7;0;Iridium
14.34217647;0.0002569;86.3934;78.6306;92.831;267.318;1.9786E-5;7.5E-7;0;Iridium
14.34217705;0.0002574;86.3934;78.5722;92.9389;267.2102;2.3324E-5;8.5E-7;0;Iridium
14.3421775;0.0002578;86.3934;78.4263;92.7253;267.4237;2.322E-5;8.5E-7;0;Iridium
14.34217806;0.000258;86.3935;78.222;92.4794;267.6697;2.3943E-5;8.7E-7;0;Iridium
14.34217858;0.0002584;86.3935;78.0176;92.2052;267.944;2.3064E-5;8.4E-7;0;Iridium
14.34217927;0.0002585;86.3936;77.7841;91.9759;268.1733;2.2758E-5;8.4E-7;0;Iridium
14.34217927;0.0002585;86.3936;77.7841;91.9759;268.1733;2.2758E-5;8.4E-7;0;Iridium
14.34217964;0.0002591;86.3936;77.609;91.7408;268.4084;2.1897E-5;8.1E-7;0;Iridium
14.34218019;0.0002595;86.3937;77.3755;91.3811;268.7682;2.0374E-5;7.7E-7;0;Iridium
14.34218066;0.0002601;86.3938;77.1712;91.0368;269.1125;1.8833E-5;7.3E-7;0;Iridium
14.34218122;0.0002603;86.3939;76.9377;90.7027;269.4467;1.8137E-5;7.1E-7;0;Iridium
14.34218122;0.0002603;86.3939;76.9377;90.7027;269.4467;1.8137E-5;7.1E-7;0;Iridium
14.34218156;0.0002606;86.3939;76.7626;90.4611;269.6883;1.6708E-5;6.7E-7;0;Iridium
14.34218206;0.0002606;86.394;76.5;90.0976;270.0518;1.5222E-5;6.2E-7;0;Iridium
14.34218252;0.0002606;86.3941;76.3541;89.7937;270.3557;1.4929E-5;6.2E-7;0;Iridium
14.34218353;0.0002606;86.3942;76.0914;89.4544;270.6951;1.7155E-5;6.8E-7;0;Iridium
14.34218427;0.0002608;86.3943;75.9163;89.188;270.9614;1.8216E-5;7.1E-7;0;Iridium
14.34218499;0.0002607;86.3944;75.7121;88.8786;271.2708;1.9642E-5;7.5E-7;0;Iridium
14.34218521;0.0002608;86.3944;75.6537;88.738;271.4114;1.9971E-5;7.6E-7;0;Iridium
14.3421857;0.0002608;86.3945;75.5078;88.5379;271.6115;1.9658E-5;7.5E-7;0;Iridium
14.34218676;0.000261;86.3946;75.2452;88.2338;271.9157;2.1895E-5;8.1E-7;0;Iridium
14.34218702;0.0002609;86.3946;75.0993;88.0366;272.1129;2.0515E-5;7.7E-7;0;Iridium
14.34218731;0.0002613;86.3948;74.6907;87.5763;272.5732;1.5285E-5;6.3E-7;0;Iridium
14.34218734;0.0002613;86.3948;74.6616;87.5413;272.6082;1.4756E-5;6.1E-7;0;Iridium
14.34218781;0.0002614;86.3949;74.2531;87.0741;273.0753;1.2984E-5;5.6E-7;0;Iridium
14.34218787;0.0002614;86.395;74.1655;87.0346;273.1149;1.3895E-5;5.9E-7;0;Iridium
14.34218889;0.0002616;86.3951;73.8446;86.5599;273.5896;1.6935E-5;6.7E-7;0;Iridium
14.34215137;0.0002623;86.3952;73.582;86.6576;273.492;1.8384E-5;7.1E-7;0;Iridium
14.3421522;0.0002622;86.3952;73.407;86.18;273.9696;1.9234E-5;7.4E-7;0;Iridium
14.34215229;0.0002621;86.3954;73.0861;85.5869;274.5627;1.2927E-5;5.6E-7;0;Iridium
14.34215242;0.0002619;86.3954;72.9985;85.5136;274.6358;1.1209E-5;5.1E-7;0;Iridium
14.34215407;0.0002614;86.3955;72.6193;85.1446;275.0049;2.1601E-5;8.0E-7;0;Iridium
14.34215416;0.0002614;86.3955;72.5901;85.1034;275.046;2.1079E-5;7.9E-7;0;Iridium
14.34215504;0.0002602;86.3957;72.1817;84.5764;275.5729;1.9642E-5;7.5E-7;0;Iridium
14.34215507;0.0002602;86.3957;72.1525;84.5474;275.6018;1.9073E-5;7.3E-7;0;Iridium
14.34215546;0.0002592;86.3958;71.9483;84.2674;275.8817;1.8065E-5;7.0E-7;0;Iridium
14.34215586;0.0002589;86.3959;71.7442;83.9913;276.1577;1.6412E-5;6.6E-7;0;Iridium
14.34215648;0.0002581;86.396;71.54;83.7649;276.384;1.6706E-5;6.7E-7;0;Iridium
14.34215693;0.0002579;86.3961;71.3358;83.5221;276.6268;1.5389E-5;6.3E-7;0;Iridium
14.34215751;0.0002572;86.3962;71.1316;83.2664;276.8824;1.4924E-5;6.2E-7;0;Iridium
14.34215828;0.0002568;86.3963;70.8983;82.9708;277.178;1.4491E-5;6.0E-7;0;Iridium
14.34215974;0.0002556;86.3965;70.49;82.5793;277.5693;1.5245E-5;6.2E-7;0;Iridium
14.34216058;0.0002548;86.3966;70.2859;82.5072;277.6414;1.6615E-5;6.6E-7;0;Iridium
14.34216165;0.0002535;86.3968;69.8484;81.856;278.2923;1.6246E-5;6.5E-7;0;Iridium
14.34216165;0.0002535;86.3968;69.8484;81.856;278.2923;1.6246E-5;6.5E-7;0;Iridium
14.34216192;0.0002532;86.3968;69.6443;81.6397;278.5086;1.4868E-5;6.1E-7;0;Iridium
14.34216215;0.0002527;86.3969;69.4402;81.5339;278.6143;1.4801E-5;6.1E-7;0;Iridium
14.34216251;0.0002526;86.3971;69.236;81.2407;278.9075;1.4679E-5;6.1E-7;0;Iridium
14.34216242;0.000252;86.3971;69.0319;81.0354;279.1127;1.2815E-5;5.6E-7;0;Iridium
14.34216264;0.0002514;86.3971;68.8277;80.9673;279.1807;1.2603E-5;5.5E-7;0;Iridium
14.34216308;0.0002503;86.3972;68.6236;80.6956;279.4523;1.401E-5;5.9E-7;0;Iridium
14.34216349;0.0002497;86.3973;68.3903;80.4111;279.7367;1.4663E-5;6.1E-7;0;Iridium
14.34214509;0.0003326;86.3986;68.215;70.0656;290.0898;1.6321E-5;6.5E-7;0;Iridium
14.34214509;0.0003326;86.3986;68.215;70.0656;290.0898;1.6321E-5;6.5E-7;0;Iridium
14.34219482;0.000254;86.3974;67.9823;81.0394;279.1089;1.6828E-5;6.7E-7;0;Iridium
14.34219169;0.0002498;86.3975;67.8072;80.5074;279.6404;1.8438E-5;7.1E-7;0;Iridium
14.34219169;0.0002498;86.3975;67.8072;80.5074;279.6404;1.8438E-5;7.1E-7;0;Iridium
14.34219322;0.0002489;86.3976;67.574;79.8055;280.3421;3.2764E-5;1.12E-6;0;Iridium
14.34219205;0.0002482;86.3976;67.3697;79.9256;280.2219;4.0262E-6;3.1E-7;0;Iridium
14.342192;0.0002482;86.3976;67.3114;79.7804;280.3671;3.5791E-6;3.0E-7;0;Iridium
14.34219208;0.0002476;86.3977;67.1364;79.6036;280.5439;3.3783E-6;2.9E-7;0;Iridium
14.34219361;0.0002476;86.3977;66.8158;78.8593;281.2881;1.3901E-5;5.9E-7;0;Iridium
14.34219371;0.0002471;86.3978;66.7283;78.8106;281.3368;1.2435E-5;5.5E-7;0;Iridium
14.34219428;0.000246;86.3978;66.466;78.4249;281.7223;1.397E-5;5.9E-7;0;Iridium
14.34219472;0.0002451;86.3979;66.3202;78.2402;281.9068;1.3531E-5;5.8E-7;0;Iridium
14.34219591;0.000244;86.398;66.0287;78.2501;281.8969;1.7057E-5;6.8E-7;0;Iridium
14.34219658;0.0002431;86.398;65.9121;78.1674;281.9795;1.8458E-5;7.1E-7;0;Iridium
14.34219751;0.0002414;86.3982;65.504;77.6825;282.4641;1.5479E-5;6.3E-7;0;Iridium
14.34219738;0.0002414;86.3982;65.4748;77.7462;282.4003;1.4026E-5;5.9E-7;0;Iridium
14.34219842;0.0002402;86.3983;65.2416;77.6772;282.4693;1.7402E-5;6.9E-7;0;Iridium
14.34219877;0.0002394;86.3984;65.0667;77.5283;282.6181;1.5626E-5;6.4E-7;0;Iridium
14.34219898;0.0002383;86.3985;64.8043;77.3214;282.8248;1.2922E-5;5.6E-7;0;Iridium
14.34219898;0.0002383;86.3985;64.8043;77.3214;282.8248;1.2922E-5;5.6E-7;0;Iridium
14.34219901;0.0002372;86.3985;64.6294;77.2263;282.9197;9.9139E-6;4.8E-7;0;Iridium
14.34219948;0.0002361;86.3986;64.3962;76.9355;283.2104;1.0093E-5;4.8E-7;0;Iridium
14.34219948;0.000235;86.3987;64.2214;76.8437;283.3021;7.4321E-6;4.1E-7;0;Iridium
14.34219985;0.0002337;86.3988;64.0465;76.7552;283.3904;8.2336E-6;4.3E-7;0;Iridium
14.34220051;0.0002328;86.3988;63.8133;76.5821;283.5634;1.0738E-5;5.0E-7;0;Iridium
14.34220127;0.0002316;86.3989;63.6384;76.4186;283.7268;1.3291E-5;5.7E-7;0;Iridium
14.34220127;0.0002316;86.3989;63.6384;76.4186;283.7268;1.3291E-5;5.7E-7;0;Iridium
14.34220172;0.0002304;86.3989;63.4052;76.275;283.8702;1.3684E-5;5.8E-7;0;Iridium
14.34220278;0.000229;86.399;63.2012;76.1034;284.0416;1.8189E-5;7.1E-7;0;Iridium
14.34220278;0.000229;86.399;63.2012;76.1034;284.0416;1.8189E-5;7.1E-7;0;Iridium
14.3422032;0.0002278;86.399;62.9972;75.9558;284.1891;1.8363E-5;7.1E-7;0;Iridium
14.34220416;0.0002263;86.3991;62.7932;75.9009;284.2438;2.1617E-5;8.0E-7;0;Iridium
14.34220479;0.0002254;86.3991;62.56;76.0222;284.1224;2.271E-5;8.3E-7;0;Iridium
14.34220569;0.000224;86.3992;62.3852;75.8371;284.3074;2.5328E-5;9.1E-7;0;Iridium
14.34220584;0.0002233;86.3992;62.152;75.9473;284.1971;2.322E-5;8.5E-7;0;Iridium
14.34220647;0.000222;86.3992;61.9479;76.1431;284.0012;2.4494E-5;8.8E-7;0;Iridium
14.34220647;0.000222;86.3992;61.9479;76.1431;284.0012;2.4494E-5;8.8E-7;0;Iridium
